[{"OBJECT_NAME":"CELESTIS-02 & TAURUS R\/B","OBJECT_ID":"1998-007D","EPOCH":"2026-03-09T22:56:59.337312","MEAN_MOTION":14.22453237,"ECCENTRICITY":0.00634235,"INCLINATION":108.0072,"RA_OF_ASC_NODE":131.996,"ARG_OF_PERICENTER":301.5817,"MEAN_ANOMALY":134.6877,"EPHEMERIS_TYPE":0,"CLASSIFICATION_TYPE":"U","NORAD_CAT_ID":25160,"ELEMENT_SET_NO":999,"REV_AT_EPOCH":45640,"BSTAR":6.4821117e-5,"MEAN_MOTION_DOT":1.8e-7,"MEAN_MOTION_DDOT":0},{"OBJECT_NAME":"MIDORI (ADEOS)","OBJECT_ID":"1996-046A","EPOCH":"2026-03-09T18:18:24.591168","MEAN_MOTION":14.30368428,"ECCENTRICITY":0.00020768,"INCLINATION":98.8135,"RA_OF_ASC_NODE":121.949,"ARG_OF_PERICENTER":66.8592,"MEAN_ANOMALY":293.2809,"EPHEMERIS_TYPE":0,"CLASSIFICATION_TYPE":"U","NORAD_CAT_ID":24277,"ELEMENT_SET_NO":999,"REV_AT_EPOCH":54145,"BSTAR":6.96854e-5,"MEAN_MOTION_DOT":1.35e-6,"MEAN_MOTION_DDOT":0}]
